ONEWEB-0012             
1 44057U 19010A   26177.14481501  .00000043  00000+0  79486-4 0  9992
2 44057  87.9090 227.0065 0001832  86.3088 273.8252 13.16595745352740
ONEWEB-0010             
1 44058U 19010B   26177.17014741  .00000001  00000+0 -30258-4 0  9993
2 44058  87.9091 226.9973 0002027 106.1356 253.9998 13.16595258352794
ONEWEB-0008             
1 44059U 19010C   26177.19546897  .00000072  00000+0  15511-3 0  9999
2 44059  87.9088 226.9876 0002313  93.8745 266.2651 13.16595931352910
ONEWEB-0007             
1 44060U 19010D   26177.16169350 -.00000026  00000+0 -10392-3 0  9996
2 44060  87.9001 257.4332 0001706 103.2469 256.8852 13.15549099352558
ONEWEB-0006             
1 44061U 19010E   26177.16565405 -.00001502  00000+0 -40253-2 0  9996
2 44061  87.9008 257.3971 0002005 104.0685 256.0668 13.15537941352602
ONEWEB-0011             
1 44062U 19010F   26176.67761694  .00000148  00000+0  35807-3 0  9993
2 44062  87.9011 257.5046 0002174 103.1334 257.0039 13.15548154352533
ONEWEB-0013             
1 45131U 20008A   26177.11013061  .00000593  00000+0  16859-2 0  9997
2 45131  87.8507  51.0245 0001864  51.3413 308.7881 13.09454764307237
ONEWEB-0017             
1 45132U 20008B   26177.08630920 -.00000518  00000+0 -15211-2 0  9993
2 45132  87.8823  34.4960 0001791  92.0860 268.0473 13.10363068309117
ONEWEB-0020             
1 45133U 20008C   26177.13211051 -.00003441  00000+0 -98938-2 0  9995
2 45133  87.8828  34.4853 0001781  83.0826 277.0504 13.10394677309514
ONEWEB-0021             
1 45134U 20008D   26177.14737348 -.00002987  00000+0 -85946-2 0  9998
2 45134  87.8818  34.4976 0001638  88.6230 271.5085 13.10389669309823
ONEWEB-0023             
1 45136U 20008F   26177.08206352 -.00000377  00000+0 -11151-2 0  9997
2 45136  87.8827  34.4933 0001949  80.7190 279.4157 13.10373665309243
ONEWEB-0024             
1 45137U 20008G   26177.13053699 -.00001088  00000+0 -31518-2 0  9997
2 45137  87.8837  34.4765 0001719  88.1859 271.9466 13.10385803309413
ONEWEB-0025             
1 45138U 20008H   26177.13026660 -.00002954  00000+0 -84989-2 0  9999
2 45138  87.8838  34.4664 0002231  86.9493 273.1890 13.10392878309744
ONEWEB-0026             
1 45139U 20008J   26177.08529079  .00000482  00000+0  13254-2 0  9995
2 45139  87.8881  19.2965 0001915  91.9371 268.1976 13.11417059312278
ONEWEB-0028             
1 45140U 20008K   26176.98439517 -.00000371  00000+0 -10819-2 0  9995
2 45140  87.8878  19.3248 0001762  68.6586 291.4730 13.11417013309778
ONEWEB-0032             
1 45141U 20008L   26177.08812515  .00000288  00000+0  78924-3 0  9998
2 45141  87.8823  34.4977 0001954  69.6805 290.4532 13.10364342309464
ONEWEB-0033             
1 45142U 20008M   26177.13889416  .00000215  00000+0  57999-3 0  9998
2 45142  87.8822  34.4933 0001841 100.9696 259.1639 13.10374664309387
ONEWEB-0035             
1 45143U 20008N   26177.15938215 -.00000339  00000+0 -10085-2 0  9996
2 45143  87.8822  34.4829 0001849  87.9340 272.1999 13.10373885309119
ONEWEB-0036             
1 45144U 20008P   26177.13695633  .00024065  00000+0  68912-1 0  9990
2 45144  87.8840  34.5031 0001672  73.5778 286.5532 13.10185695309534
ONEWEB-0038             
1 45145U 20008Q   26177.09560147  .00000575  00000+0  15871-2 0  9994
2 45145  87.8896  19.3044 0000438 154.5785 205.5364 13.11415648311495
ONEWEB-0039             
1 45146U 20008R   26177.14229169  .00000581  00000+0  16287-2 0  9996
2 45146  87.8822  34.4833 0001713  69.8456 290.2856 13.10370304309334
ONEWEB-0040             
1 45147U 20008S   26177.13548398  .00000709  00000+0  19936-2 0  9990
2 45147  87.8822  34.4959 0001901  72.9716 287.1620 13.10378377309036
ONEWEB-0043             
1 45149U 20008U   26177.13724191 -.00002242  00000+0 -64619-2 0  9993
2 45149  87.8825  34.4839 0001870  61.6599 298.4717 13.10350003309350
ONEWEB-0044             
1 45150U 20008V   26177.16606603 -.00000564  00000+0 -16520-2 0  9998
2 45150  87.8833  34.4789 0001767  79.6413 280.4913 13.10349968309654
ONEWEB-0045             
1 45151U 20008W   26177.09037904  .00000645  00000+0  17846-2 0  9993
2 45151  87.8891  19.2875 0001724  83.8855 276.2469 13.11416511311579
ONEWEB-0047             
1 45152U 20008X   26177.08275088 -.00000389  00000+0 -11518-2 0  9997
2 45152  87.8832  34.4947 0001669  90.5807 269.5511 13.10374160309363
ONEWEB-0048             
1 45153U 20008Y   26177.15417343 -.00001762  00000+0 -50833-2 0  9997
2 45153  87.8822  34.5011 0001820  87.1461 272.9874 13.10379771308983
ONEWEB-0049             
1 45154U 20008Z   26177.15741346 -.00000384  00000+0 -11362-2 0  9994
2 45154  87.8821  34.4894 0002164  79.9639 280.1732 13.10374073309209
ONEWEB-0051             
1 45155U 20008AA  26177.08869882  .00001992  00000+0  55839-2 0  9994
2 45155  87.8885  19.2946 0001660  87.0608 273.0709 13.11410257312255
ONEWEB-0052             
1 45156U 20008AB  26177.10171464 -.00000481  00000+0 -14158-2 0  9993
2 45156  87.8832  34.4875 0002163  77.2522 282.8847 13.10359884309101
